*******************************************************************************
Ephemeris / WWW_USER Fri Mar  7 11:13:03 2025 Pasadena, USA      / Horizons    
*******************************************************************************
Target body name: (2018 VX1)                      {source: JPL#7}
Center body name: Earth (399)                     {source: DE441}
Center-site name: Mauna Kea
*******************************************************************************
Start time      : A.D. 2018-Oct-15 04:08:00.0000 UT      
Stop  time      : A.D. 2018-Oct-15 16:07:00.0000 UT      
Step-size       : 1 minutes
*******************************************************************************
Target pole/equ : undefined
Target radii    : undefined                                                    
Center geodetic : 204.5278, 19.8260847, 4.21024   {E-lon(deg),Lat(deg),Alt(km)}
Center cylindric: 204.5278, 6006.35451, 2151.0229 {E-lon(deg),Dxy(km),Dz(km)}
Center pole/equ : ITRF93                          {East-longitude positive}
Center radii    : 6378.137, 6378.137, 6356.752 km {Equator_a, b, pole_c}       
Target primary  : Sun
Vis. interferer : MOON (R_eq= 1737.400) km        {source: DE441}
Rel. light bend : Sun                             {source: DE441}
Rel. lght bnd GM: 1.3271E+11 km^3/s^2                                          
Small-body perts: Yes                             {source: SB441-N16}
Atmos refraction: NO (AIRLESS)
RA format       : HMS
Time format     : CAL 
Calendar mode   : Mixed Julian/Gregorian
RTS-only print  : NO       
EOP file        : eop.250306.p250602                                           
EOP coverage    : DATA-BASED 1962-JAN-20 TO 2025-MAR-06. PREDICTS-> 2025-JUN-01
Units conversion: 1 au= 149597870.700 km, c= 299792.458 km/s, 1 day= 86400.0 s 
Table cut-offs 1: Elevation (-90.0deg=NO ),Airmass (>38.000=NO), Daylight (YES)
Table cut-offs 2: Solar elongation (  0.0,180.0=NO ),Local Hour Angle( 0.0=NO )
Table cut-offs 3: RA/DEC angular rate (     0.0=NO )                           
*******************************************************************************
Initial IAU76/J2000 heliocentric ecliptic osculating elements (au, days, deg.):
  EPOCH=  2458429.5 ! 2018-Nov-07.00 (TDB)         Residual RMS= .34243        
   EC= .3094465550301519   QR= .9449639043218054   TP= 2458464.0659233886      
   OM= 45.67874041641947   W=  38.97310343924259   IN= 3.356915226222919       
  Equivalent ICRF heliocentric cartesian coordinates (au, au/d):
   X= 7.224620352366717E-01  Y= 6.383229877646874E-01  Z= 2.747435985069854E-01
  VX=-1.546092850205216E-02 VY= 1.016746642579675E-02 VZ= 5.632057443641291E-03
Asteroid physical parameters (km, seconds, rotational period in hours):        
   GM= n.a.                RAD= n.a.               ROTPER= n.a.                
   H= 27.5                 G= .150                 B-V= n.a.                   
                           ALBEDO= n.a.            STYP= n.a.                  
*******************************************************************************
 Date__(UT)__HR:MN     R.A._________(ICRF)_________DEC
******************************************************
$$SOE
 2018-Oct-15 04:08 Cm  01 17 41.181480 -09 24 28.25524
 2018-Oct-15 04:09 Cr  01 17 41.171284 -09 24 28.48900
 2018-Oct-15 04:10 Cm  01 17 41.160974 -09 24 28.72275
 2018-Oct-15 04:11 Cm  01 17 41.150552 -09 24 28.95648
 2018-Oct-15 04:12 Cm  01 17 41.140017 -09 24 29.19020
 2018-Oct-15 04:13 Cm  01 17 41.129368 -09 24 29.42391
 2018-Oct-15 04:14 Cm  01 17 41.118607 -09 24 29.65760
 2018-Oct-15 04:15 Cm  01 17 41.107733 -09 24 29.89128
 2018-Oct-15 04:16 Cm  01 17 41.096746 -09 24 30.12493
 2018-Oct-15 04:17 Cm  01 17 41.085645 -09 24 30.35857
 2018-Oct-15 04:18 Cm  01 17 41.074432 -09 24 30.59219
 2018-Oct-15 04:19 Cm  01 17 41.063106 -09 24 30.82578
 2018-Oct-15 04:20 Cm  01 17 41.051667 -09 24 31.05936
 2018-Oct-15 04:21 Cm  01 17 41.040116 -09 24 31.29291
 2018-Oct-15 04:22 Nm  01 17 41.028451 -09 24 31.52643
 2018-Oct-15 04:23 Nm  01 17 41.016673 -09 24 31.75993
 2018-Oct-15 04:24 Nm  01 17 41.004783 -09 24 31.99340
 2018-Oct-15 04:25 Nm  01 17 40.992780 -09 24 32.22684
 2018-Oct-15 04:26 Nm  01 17 40.980664 -09 24 32.46025
 2018-Oct-15 04:27 Nm  01 17 40.968435 -09 24 32.69363
 2018-Oct-15 04:28 Nm  01 17 40.956094 -09 24 32.92698
 2018-Oct-15 04:29 Nm  01 17 40.943640 -09 24 33.16030
 2018-Oct-15 04:30 Nm  01 17 40.931074 -09 24 33.39358
 2018-Oct-15 04:31 Nm  01 17 40.918394 -09 24 33.62682
 2018-Oct-15 04:32 Nm  01 17 40.905603 -09 24 33.86003
 2018-Oct-15 04:33 Nm  01 17 40.892698 -09 24 34.09320
 2018-Oct-15 04:34 Nm  01 17 40.879682 -09 24 34.32633
 2018-Oct-15 04:35 Nm  01 17 40.866553 -09 24 34.55943
 2018-Oct-15 04:36 Nm  01 17 40.853311 -09 24 34.79248
 2018-Oct-15 04:37 Nm  01 17 40.839958 -09 24 35.02548
 2018-Oct-15 04:38 Nm  01 17 40.826492 -09 24 35.25844
 2018-Oct-15 04:39 Nm  01 17 40.812914 -09 24 35.49136
 2018-Oct-15 04:40 Nm  01 17 40.799223 -09 24 35.72423
 2018-Oct-15 04:41 Nm  01 17 40.785421 -09 24 35.95706
 2018-Oct-15 04:42 Nm  01 17 40.771507 -09 24 36.18983
 2018-Oct-15 04:43 Nm  01 17 40.757481 -09 24 36.42256
 2018-Oct-15 04:44 Nm  01 17 40.743343 -09 24 36.65524
 2018-Oct-15 04:45 Nm  01 17 40.729093 -09 24 36.88786
 2018-Oct-15 04:46 Nm  01 17 40.714731 -09 24 37.12043
 2018-Oct-15 04:47 Am  01 17 40.700258 -09 24 37.35294
 2018-Oct-15 04:48 Am  01 17 40.685673 -09 24 37.58540
 2018-Oct-15 04:49 Am  01 17 40.670977 -09 24 37.81781
 2018-Oct-15 04:50 Am  01 17 40.656169 -09 24 38.05015
 2018-Oct-15 04:51 Am  01 17 40.641250 -09 24 38.28244
 2018-Oct-15 04:52 Am  01 17 40.626220 -09 24 38.51466
 2018-Oct-15 04:53 Am  01 17 40.611079 -09 24 38.74683
 2018-Oct-15 04:54 Am  01 17 40.595826 -09 24 38.97893
 2018-Oct-15 04:55 Am  01 17 40.580463 -09 24 39.21096
 2018-Oct-15 04:56 Am  01 17 40.564989 -09 24 39.44294
 2018-Oct-15 04:57 Am  01 17 40.549404 -09 24 39.67484
 2018-Oct-15 04:58 Am  01 17 40.533708 -09 24 39.90668
 2018-Oct-15 04:59 Am  01 17 40.517902 -09 24 40.13845
 2018-Oct-15 05:00 Am  01 17 40.501985 -09 24 40.37015
 2018-Oct-15 05:01 Am  01 17 40.485958 -09 24 40.60179
 2018-Oct-15 05:02 Am  01 17 40.469820 -09 24 40.83334
 2018-Oct-15 05:03 Am  01 17 40.453573 -09 24 41.06483
 2018-Oct-15 05:04 Am  01 17 40.437215 -09 24 41.29624
 2018-Oct-15 05:05 Am  01 17 40.420747 -09 24 41.52758
 2018-Oct-15 05:06 Am  01 17 40.404170 -09 24 41.75884
 2018-Oct-15 05:07 Am  01 17 40.387483 -09 24 41.99002
 2018-Oct-15 05:08 Am  01 17 40.370686 -09 24 42.22112
 2018-Oct-15 05:09 Am  01 17 40.353780 -09 24 42.45215
 2018-Oct-15 05:10 Am  01 17 40.336765 -09 24 42.68309
 2018-Oct-15 05:11 Am  01 17 40.319640 -09 24 42.91395
 2018-Oct-15 05:12 Am  01 17 40.302406 -09 24 43.14472
 2018-Oct-15 05:13  m  01 17 40.285064 -09 24 43.37542
 2018-Oct-15 05:14  m  01 17 40.267612 -09 24 43.60602
 2018-Oct-15 05:15  m  01 17 40.250052 -09 24 43.83654
 2018-Oct-15 05:16  m  01 17 40.232383 -09 24 44.06697
 2018-Oct-15 05:17  m  01 17 40.214606 -09 24 44.29732
 2018-Oct-15 05:18  m  01 17 40.196720 -09 24 44.52757
 2018-Oct-15 05:19  m  01 17 40.178727 -09 24 44.75773
 2018-Oct-15 05:20  m  01 17 40.160625 -09 24 44.98780
 2018-Oct-15 05:21  m  01 17 40.142416 -09 24 45.21777
 2018-Oct-15 05:22  m  01 17 40.124099 -09 24 45.44765
 2018-Oct-15 05:23  m  01 17 40.105674 -09 24 45.67744
 2018-Oct-15 05:24  m  01 17 40.087142 -09 24 45.90712
 2018-Oct-15 05:25  m  01 17 40.068503 -09 24 46.13671
 2018-Oct-15 05:26  m  01 17 40.049756 -09 24 46.36620
 2018-Oct-15 05:27  m  01 17 40.030903 -09 24 46.59559
 2018-Oct-15 05:28  m  01 17 40.011943 -09 24 46.82488
 2018-Oct-15 05:29  m  01 17 39.992876 -09 24 47.05406
 2018-Oct-15 05:30  m  01 17 39.973703 -09 24 47.28314
 2018-Oct-15 05:31  m  01 17 39.954424 -09 24 47.51212
 2018-Oct-15 05:32  m  01 17 39.935038 -09 24 47.74099
 2018-Oct-15 05:33  m  01 17 39.915547 -09 24 47.96975
 2018-Oct-15 05:34  m  01 17 39.895950 -09 24 48.19841
 2018-Oct-15 05:35  m  01 17 39.876247 -09 24 48.42695
 2018-Oct-15 05:36  m  01 17 39.856439 -09 24 48.65539
 2018-Oct-15 05:37  m  01 17 39.836525 -09 24 48.88371
 2018-Oct-15 05:38  m  01 17 39.816507 -09 24 49.11192
 2018-Oct-15 05:39  m  01 17 39.796384 -09 24 49.34002
 2018-Oct-15 05:40  m  01 17 39.776156 -09 24 49.56800
 2018-Oct-15 05:41  m  01 17 39.755823 -09 24 49.79587
 2018-Oct-15 05:42  m  01 17 39.735387 -09 24 50.02362
 2018-Oct-15 05:43  m  01 17 39.714846 -09 24 50.25125
 2018-Oct-15 05:44  m  01 17 39.694201 -09 24 50.47876
 2018-Oct-15 05:45  m  01 17 39.673453 -09 24 50.70615
 2018-Oct-15 05:46  m  01 17 39.652601 -09 24 50.93342
 2018-Oct-15 05:47  m  01 17 39.631646 -09 24 51.16057
 2018-Oct-15 05:48  m  01 17 39.610587 -09 24 51.38759
 2018-Oct-15 05:49  m  01 17 39.589426 -09 24 51.61449
 2018-Oct-15 05:50  m  01 17 39.568162 -09 24 51.84126
 2018-Oct-15 05:51  m  01 17 39.546795 -09 24 52.06791
 2018-Oct-15 05:52  m  01 17 39.525326 -09 24 52.29443
 2018-Oct-15 05:53  m  01 17 39.503756 -09 24 52.52082
 2018-Oct-15 05:54  m  01 17 39.482083 -09 24 52.74708
 2018-Oct-15 05:55  m  01 17 39.460308 -09 24 52.97321
 2018-Oct-15 05:56  m  01 17 39.438432 -09 24 53.19920
 2018-Oct-15 05:57  m  01 17 39.416455 -09 24 53.42506
 2018-Oct-15 05:58  m  01 17 39.394377 -09 24 53.65079
 2018-Oct-15 05:59  m  01 17 39.372198 -09 24 53.87639
 2018-Oct-15 06:00  m  01 17 39.349919 -09 24 54.10184
 2018-Oct-15 06:01  m  01 17 39.327539 -09 24 54.32716
 2018-Oct-15 06:02  m  01 17 39.305059 -09 24 54.55234
 2018-Oct-15 06:03  m  01 17 39.282480 -09 24 54.77738
 2018-Oct-15 06:04  m  01 17 39.259800 -09 24 55.00228
 2018-Oct-15 06:05  m  01 17 39.237022 -09 24 55.22704
 2018-Oct-15 06:06  m  01 17 39.214144 -09 24 55.45165
 2018-Oct-15 06:07  m  01 17 39.191167 -09 24 55.67613
 2018-Oct-15 06:08  m  01 17 39.168091 -09 24 55.90045
 2018-Oct-15 06:09  m  01 17 39.144917 -09 24 56.12463
 2018-Oct-15 06:10  m  01 17 39.121645 -09 24 56.34867
